TDRS 3                  
1 19548U 88091B   26195.32974012 -.00000307  00000+0  00000+0 0  9993
2 19548  12.5813 340.8203 0037046 355.5070  25.3820  1.00262815125669
FLTSATCOM 8 (USA 46)    
1 20253U 89077A   26195.45669128 -.00000377  00000+0  00000+0 0  9993
2 20253  12.4138 350.9960 0003396  70.8870 160.3353  1.00263382260831
SKYNET 4C               
1 20776U 90079A   26195.63679068 -.00000147  00000+0  00000+0 0  9996
2 20776  13.3294 349.6402 0002769 135.0060 231.5470  0.98578465   311
TDRS 5                  
1 21639U 91054B   26195.63616742  .00000074  00000+0  00000+0 0  9997
2 21639  14.0676 353.5733 0007444 258.0671 102.1744  1.00273266127987
TDRS 6                  
1 22314U 93003B   26195.38346833 -.00000306  00000+0  00000+0 0  9996
2 22314  14.1832 356.8533 0008330 184.0337 203.3691  1.00280051122686
UFO 2 (USA 95)          
1 22787U 93056A   26195.62961729  .00000114  00000+0  00000+0 0  9998
2 22787  11.9044   3.3998 0002528   8.1879 176.1845  1.00270159118826
UFO 4 (USA 108)         
1 23467U 95003A   26195.35731955 -.00000031  00000+0  00000+0 0  9993
2 23467   9.6755  13.0133 0003139  98.9497 121.2538  1.00276186115223
TDRS 7                  
1 23613U 95035B   26195.61721167 -.00000250  00000+0  00000+0 0  9997
2 23613  13.3657 347.9978 0011503  86.3373 169.5937  1.00274030113528
USA 115 (MILSTAR-1 2)   
1 23712U 95060A   26195.46987919 -.00000214  00000+0  00000+0 0  9997
2 23712  14.0825   3.5405 0006041 123.5098 244.4197  1.00272602 33167
INMARSAT 3-F1           
1 23839U 96020A   26195.54873056  .00000038  00000+0  00000+0 0  9992
2 23839  10.6560  46.3781 0004468  88.7377 230.7520  0.99980166110522
INMARSAT 3-F2           
1 24307U 96053A   26195.51202142 -.00000371  00000+0  00000+0 0  9999
2 24307   9.9164  53.6538 0006376  54.3811 131.1058  0.99991922109190
INMARSAT 3-F3           
1 24674U 96070A   26195.27682278  .00000030  00000+0  00000+0 0  9991
2 24674  10.3748  49.3890 0003558  76.1001 281.1981  0.99994896108177
USA 134                 
1 25019U 97065A   26195.57175696 -.00000075  00000+0  00000+0 0  9994
2 25019  12.8161  21.5134 0002547 334.1074  30.2232  1.00273650 33231
INMARSAT 3-F5           
1 25153U 98006B   26195.47707256 -.00000304  00000+0  00000+0 0  9996
2 25153   9.7523  52.9833 0004320  62.0164 295.1157  1.00273231104163
ABS-6                   
1 25924U 99053A   26195.56017608 -.00000127  00000+0  00000+0 0  9993
2 25924   0.0564 261.7597 0003313 192.6859 198.6232  1.00272356 98112
UFO 10 (USA 146)        
1 25967U 99063A   26195.34063120 -.00000200  00000+0  00000+0 0  9999
2 25967   9.8539  27.0633 0001575 117.2371 247.5841  1.00272737 97620
ASIASTAR                
1 26107U 00016A   26195.57982277 -.00000347  00000+0  00000+0 0  9996
2 26107   9.1914  57.8570 0003745  66.9841 121.3484  1.00271402 96192
USA 149 (DSP 20)        
1 26356U 00024A   26195.25306211  .00000085  00000+0  00000+0 0  9992
2 26356  13.1904  11.6558 0001793 311.2491 255.6644  1.00281772 33184
TDRS 8                  
1 26388U 00034A   26195.57583609 -.00000210  00000+0  00000+0 0  9992
2 26388  12.7255  31.0851 0004042  36.2901 157.2123  1.00272476 95453
NSS-11                  
1 26554U 00059A   26195.59394003  .00000015  00000+0  00000+0 0  9996
2 26554   2.1952  81.0628 0002831  38.0292 203.1731  1.00270872 41566
USA 153                 
1 26575U 00065A   26195.45770514 -.00000338  00000+0  00000+0 0  9995
2 26575  11.6701  35.1895 0002084  58.1340 138.2352  1.00272890 33200
AMC-6                   
1 26580U 00067A   26195.54419973  .00000081  00000+0  00000+0 0  9996
2 26580   0.2198  83.6555 0003801  42.5881 227.0186  1.00270575 94168
USA 157 (MILSTAR-2 2)   
1 26715U 01009A   26195.25322590  .00000098  00000+0  00000+0 0  9997
2 26715  11.5719  19.5914 0040509 179.3244  34.2726  1.00273806 33214
INTELSAT 902 (IS-902)   
1 26900U 01039A   26195.54914038 -.00000295  00000+0  00000+0 0  9992
2 26900   6.1834  71.4466 0004217  40.6431 327.9041  1.00272956 90974
USA 164 (MILSTAR-2 3)   
1 27168U 02001A   26195.20638940  .00000087  00000+0  00000+0 0  9995
2 27168  11.2112  21.7379 0098531   8.9755 354.6874  1.00276857 33237
INTELSAT 904 (IS-904)   
1 27380U 02007A   26195.45850451 -.00000238  00000+0  00000+0 0  9996
2 27380   6.9859  68.8533 0005357  25.0293 332.0278  1.00270775 52037
DIRECTV 5 (TEMPO 1)     
1 27426U 02023A   26195.55403007 -.00000068  00000+0  00000+0 0  9998
2 27426   4.9455  74.9673 0003057  45.4732 261.3095  1.00271214 88398
INTELSAT 905 (IS-905)   
1 27438U 02027A   26195.54320030  .00000081  00000+0  00000+0 0  9992
2 27438   6.8199  69.4663 0003464  47.3616 233.9172  1.00271728 51637
GALAXY 3C (G-3C)        
1 27445U 02030A   26195.56468971 -.00000163  00000+0  00000+0 0  9995
2 27445   3.8023  77.6189 0001510  35.5728 287.6872  1.00270677 46768
INTELSAT 906 (IS-906)   
1 27513U 02041A   26195.21531611  .00000001  00000+0  00000+0 0  9997
2 27513   5.8686  72.5873 0003844  23.7209 337.4316  1.00272945 87302
NIMIQ 2                 
1 27632U 02062A   26195.23447459 -.00000082  00000+0  00000+0 0  9990
2 27632   9.5064  56.6084 0005264  54.5520 156.1381  1.00270303 44451
